QIANFAN-18              
1 60396U 24140T   26063.47975744  .00000134  00000+0  18931-3 0  9991
2 60396  88.9723 290.5184 0013221 318.5660  41.4488 13.51003533 78569
QIANFAN-19              
1 61552U 24185A   26063.44136485  .00000700  00000+0  35865-3 0  9997
2 61552  88.9758  68.5603 0008713  53.8853 306.3139 14.14385981 81216
QIANFAN-20              
1 61553U 24185B   26063.43474681  .00000676  00000+0  38282-3 0  9998
2 61553  88.9755  68.9674 0007903  85.4105 274.7982 14.08932302 80993
QIANFAN-21              
1 61554U 24185C   26063.48010857  .00000902  00000+0  39621-3 0  9995
2 61554  88.9676  67.3861 0012981  95.9373 264.3298 14.22726841 81599
QIANFAN-22              
1 61555U 24185D   26063.49506131  .00000319  00000+0  26410-3 0  9996
2 61555  88.9739  70.2722 0008561 102.6807 257.5322 13.86338179 80263
QIANFAN-23              
1 61556U 24185E   26063.44287183  .00000765  00000+0  37796-3 0  9999
2 61556  88.9750  68.3314 0009633  61.8414 298.3746 14.16391017 81317
QIANFAN-24              
1 61557U 24185F   26063.48416745  .00001075  00000+0  46271-3 0  9995
2 61557  88.9734  67.5979 0010712  42.0831 318.1182 14.23930539 81650
QIANFAN-25              
1 61558U 24185G   26063.49812619  .00000590  00000+0  35172-3 0  9996
2 61558  88.9747  68.9179 0011920  68.4023 291.8428 14.05994101 80990
QIANFAN-26              
1 61559U 24185H   26063.44810351  .00000311  00000+0  29787-3 0  9999
2 61559  88.9745  70.9156 0007628 115.4759 244.7197 13.77860865 79924
QIANFAN-27              
1 61560U 24185J   26063.48839642  .00000740  00000+0  29566-3 0  9990
2 61560  88.9747  67.3410 0008784  35.5696 324.6082 14.27442195 81828
QIANFAN-28              
1 61561U 24185K   26063.49852902  .00001236  00000+0  49061-3 0  9999
2 61561  88.9762  67.3470 0008396  36.4874 323.6891 14.28210543 81849
QIANFAN-29              
1 61562U 24185L   26063.42916916  .00000225  00000+0  32936-3 0  9999
2 61562  88.9717  72.8532 0010260 162.9817 197.1680 13.51043163 78826
QIANFAN-30              
1 61563U 24185M   26063.46592291  .00000217  00000+0  32261-3 0  9992
2 61563  88.9737  72.4062 0008580 146.9314 213.2375 13.50018301 79095
QIANFAN-31              
1 61564U 24185N   26063.47018045  .00000239  00000+0  31359-3 0  9995
2 61564  88.9722  72.0775 0008253 138.3894 221.7890 13.58002633 79255
QIANFAN-32              
1 61565U 24185P   26063.46327304  .00000182  00000+0  26488-3 0  9990
2 61565  88.9781  72.5656 0009608 175.9676 184.1554 13.50763662 79071
QIANFAN-33              
1 61566U 24185Q   26063.43939300  .00000553  00000+0  38973-3 0  9997
2 61566  88.9736  69.6818 0009313  76.4488 283.7726 13.96622000 80561
QIANFAN-34              
1 61567U 24185R   26063.49774071  .00000573  00000+0  36458-3 0  9994
2 61567  88.9712  69.1302 0008287  79.9633 280.2481 14.02382069 80812
