[{"OBJECT_NAME":"QIANFAN-18","OBJECT_ID":"2024-140T","EPOCH":"2026-03-04T11:30:51.042816","MEAN_MOTION":13.51003533,"ECCENTRICITY":0.0013221,"INCLINATION":88.9723,"RA_OF_ASC_NODE":290.5184,"ARG_OF_PERICENTER":318.566,"MEAN_ANOMALY":41.4488,"EPHEMERIS_TYPE":0,"CLASSIFICATION_TYPE":"U","NORAD_CAT_ID":60396,"ELEMENT_SET_NO":999,"REV_AT_EPOCH":7856,"BSTAR":0.00018931,"MEAN_MOTION_DOT":1.34e-6,"MEAN_MOTION_DDOT":0},{"OBJECT_NAME":"QIANFAN-19","OBJECT_ID":"2024-185A","EPOCH":"2026-03-04T10:35:33.923040","MEAN_MOTION":14.14385981,"ECCENTRICITY":0.0008713,"INCLINATION":88.9758,"RA_OF_ASC_NODE":68.5603,"ARG_OF_PERICENTER":53.8853,"MEAN_ANOMALY":306.3139,"EPHEMERIS_TYPE":0,"CLASSIFICATION_TYPE":"U","NORAD_CAT_ID":61552,"ELEMENT_SET_NO":999,"REV_AT_EPOCH":8121,"BSTAR":0.00035865,"MEAN_MOTION_DOT":7.0e-6,"MEAN_MOTION_DDOT":0},{"OBJECT_NAME":"QIANFAN-20","OBJECT_ID":"2024-185B","EPOCH":"2026-03-04T10:26:02.124384","MEAN_MOTION":14.08932302,"ECCENTRICITY":0.0007903,"INCLINATION":88.9755,"RA_OF_ASC_NODE":68.9674,"ARG_OF_PERICENTER":85.4105,"MEAN_ANOMALY":274.7982,"EPHEMERIS_TYPE":0,"CLASSIFICATION_TYPE":"U","NORAD_CAT_ID":61553,"ELEMENT_SET_NO":999,"REV_AT_EPOCH":8099,"BSTAR":0.00038282,"MEAN_MOTION_DOT":6.76e-6,"MEAN_MOTION_DDOT":0},{"OBJECT_NAME":"QIANFAN-21","OBJECT_ID":"2024-185C","EPOCH":"2026-03-04T11:31:21.380448","MEAN_MOTION":14.22726841,"ECCENTRICITY":0.0012981,"INCLINATION":88.9676,"RA_OF_ASC_NODE":67.3861,"ARG_OF_PERICENTER":95.9373,"MEAN_ANOMALY":264.3298,"EPHEMERIS_TYPE":0,"CLASSIFICATION_TYPE":"U","NORAD_CAT_ID":61554,"ELEMENT_SET_NO":999,"REV_AT_EPOCH":8159,"BSTAR":0.00039621,"MEAN_MOTION_DOT":9.02e-6,"MEAN_MOTION_DDOT":0},{"OBJECT_NAME":"QIANFAN-22","OBJECT_ID":"2024-185D","EPOCH":"2026-03-04T11:52:53.297184","MEAN_MOTION":13.86338179,"ECCENTRICITY":0.0008561,"INCLINATION":88.9739,"RA_OF_ASC_NODE":70.2722,"ARG_OF_PERICENTER":102.6807,"MEAN_ANOMALY":257.5322,"EPHEMERIS_TYPE":0,"CLASSIFICATION_TYPE":"U","NORAD_CAT_ID":61555,"ELEMENT_SET_NO":999,"REV_AT_EPOCH":8026,"BSTAR":0.0002641,"MEAN_MOTION_DOT":3.19e-6,"MEAN_MOTION_DDOT":0},{"OBJECT_NAME":"QIANFAN-23","OBJECT_ID":"2024-185E","EPOCH":"2026-03-04T10:37:44.126112","MEAN_MOTION":14.16391017,"ECCENTRICITY":0.0009633,"INCLINATION":88.975,"RA_OF_ASC_NODE":68.3314,"ARG_OF_PERICENTER":61.8414,"MEAN_ANOMALY":298.3746,"EPHEMERIS_TYPE":0,"CLASSIFICATION_TYPE":"U","NORAD_CAT_ID":61556,"ELEMENT_SET_NO":999,"REV_AT_EPOCH":8131,"BSTAR":0.00037796,"MEAN_MOTION_DOT":7.65e-6,"MEAN_MOTION_DDOT":0},{"OBJECT_NAME":"QIANFAN-24","OBJECT_ID":"2024-185F","EPOCH":"2026-03-04T11:37:12.067680","MEAN_MOTION":14.23930539,"ECCENTRICITY":0.0010712,"INCLINATION":88.9734,"RA_OF_ASC_NODE":67.5979,"ARG_OF_PERICENTER":42.0831,"MEAN_ANOMALY":318.1182,"EPHEMERIS_TYPE":0,"CLASSIFICATION_TYPE":"U","NORAD_CAT_ID":61557,"ELEMENT_SET_NO":999,"REV_AT_EPOCH":8165,"BSTAR":0.00046271,"MEAN_MOTION_DOT":1.075e-5,"MEAN_MOTION_DDOT":0},{"OBJECT_NAME":"QIANFAN-25","OBJECT_ID":"2024-185G","EPOCH":"2026-03-04T11:57:18.102816","MEAN_MOTION":14.05994101,"ECCENTRICITY":0.001192,"INCLINATION":88.9747,"RA_OF_ASC_NODE":68.9179,"ARG_OF_PERICENTER":68.4023,"MEAN_ANOMALY":291.8428,"EPHEMERIS_TYPE":0,"CLASSIFICATION_TYPE":"U","NORAD_CAT_ID":61558,"ELEMENT_SET_NO":999,"REV_AT_EPOCH":8099,"BSTAR":0.00035172,"MEAN_MOTION_DOT":5.9e-6,"MEAN_MOTION_DDOT":0},{"OBJECT_NAME":"QIANFAN-26","OBJECT_ID":"2024-185H","EPOCH":"2026-03-04T10:45:16.143264","MEAN_MOTION":13.77860865,"ECCENTRICITY":0.0007628,"INCLINATION":88.9745,"RA_OF_ASC_NODE":70.9156,"ARG_OF_PERICENTER":115.4759,"MEAN_ANOMALY":244.7197,"EPHEMERIS_TYPE":0,"CLASSIFICATION_TYPE":"U","NORAD_CAT_ID":61559,"ELEMENT_SET_NO":999,"REV_AT_EPOCH":7992,"BSTAR":0.00029787,"MEAN_MOTION_DOT":3.11e-6,"MEAN_MOTION_DDOT":0},{"OBJECT_NAME":"QIANFAN-27","OBJECT_ID":"2024-185J","EPOCH":"2026-03-04T11:43:17.450688","MEAN_MOTION":14.27442195,"ECCENTRICITY":0.0008784,"INCLINATION":88.9747,"RA_OF_ASC_NODE":67.341,"ARG_OF_PERICENTER":35.5696,"MEAN_ANOMALY":324.6082,"EPHEMERIS_TYPE":0,"CLASSIFICATION_TYPE":"U","NORAD_CAT_ID":61560,"ELEMENT_SET_NO":999,"REV_AT_EPOCH":8182,"BSTAR":0.00029566,"MEAN_MOTION_DOT":7.4e-6,"MEAN_MOTION_DDOT":0},{"OBJECT_NAME":"QIANFAN-28","OBJECT_ID":"2024-185K","EPOCH":"2026-03-04T11:57:52.907328","MEAN_MOTION":14.28210543,"ECCENTRICITY":0.0008396,"INCLINATION":88.9762,"RA_OF_ASC_NODE":67.347,"ARG_OF_PERICENTER":36.4874,"MEAN_ANOMALY":323.6891,"EPHEMERIS_TYPE":0,"CLASSIFICATION_TYPE":"U","NORAD_CAT_ID":61561,"ELEMENT_SET_NO":999,"REV_AT_EPOCH":8184,"BSTAR":0.00049061,"MEAN_MOTION_DOT":1.236e-5,"MEAN_MOTION_DDOT":0},{"OBJECT_NAME":"QIANFAN-29","OBJECT_ID":"2024-185L","EPOCH":"2026-03-04T10:18:00.215424","MEAN_MOTION":13.51043163,"ECCENTRICITY":0.001026,"INCLINATION":88.9717,"RA_OF_ASC_NODE":72.8532,"ARG_OF_PERICENTER":162.9817,"MEAN_ANOMALY":197.168,"EPHEMERIS_TYPE":0,"CLASSIFICATION_TYPE":"U","NORAD_CAT_ID":61562,"ELEMENT_SET_NO":999,"REV_AT_EPOCH":7882,"BSTAR":0.00032936,"MEAN_MOTION_DOT":2.25e-6,"MEAN_MOTION_DDOT":0},{"OBJECT_NAME":"QIANFAN-30","OBJECT_ID":"2024-185M","EPOCH":"2026-03-04T11:10:55.739424","MEAN_MOTION":13.50018301,"ECCENTRICITY":0.000858,"INCLINATION":88.9737,"RA_OF_ASC_NODE":72.4062,"ARG_OF_PERICENTER":146.9314,"MEAN_ANOMALY":213.2375,"EPHEMERIS_TYPE":0,"CLASSIFICATION_TYPE":"U","NORAD_CAT_ID":61563,"ELEMENT_SET_NO":999,"REV_AT_EPOCH":7909,"BSTAR":0.00032261,"MEAN_MOTION_DOT":2.17e-6,"MEAN_MOTION_DDOT":0},{"OBJECT_NAME":"QIANFAN-31","OBJECT_ID":"2024-185N","EPOCH":"2026-03-04T11:17:03.590880","MEAN_MOTION":13.58002633,"ECCENTRICITY":0.0008253,"INCLINATION":88.9722,"RA_OF_ASC_NODE":72.0775,"ARG_OF_PERICENTER":138.3894,"MEAN_ANOMALY":221.789,"EPHEMERIS_TYPE":0,"CLASSIFICATION_TYPE":"U","NORAD_CAT_ID":61564,"ELEMENT_SET_NO":999,"REV_AT_EPOCH":7925,"BSTAR":0.00031359,"MEAN_MOTION_DOT":2.39e-6,"MEAN_MOTION_DDOT":0},{"OBJECT_NAME":"QIANFAN-32","OBJECT_ID":"2024-185P","EPOCH":"2026-03-04T11:07:06.790656","MEAN_MOTION":13.50763662,"ECCENTRICITY":0.0009608,"INCLINATION":88.9781,"RA_OF_ASC_NODE":72.5656,"ARG_OF_PERICENTER":175.9676,"MEAN_ANOMALY":184.1554,"EPHEMERIS_TYPE":0,"CLASSIFICATION_TYPE":"U","NORAD_CAT_ID":61565,"ELEMENT_SET_NO":999,"REV_AT_EPOCH":7907,"BSTAR":0.00026488,"MEAN_MOTION_DOT":1.82e-6,"MEAN_MOTION_DDOT":0},{"OBJECT_NAME":"QIANFAN-33","OBJECT_ID":"2024-185Q","EPOCH":"2026-03-04T10:32:43.555200","MEAN_MOTION":13.96622,"ECCENTRICITY":0.0009313,"INCLINATION":88.9736,"RA_OF_ASC_NODE":69.6818,"ARG_OF_PERICENTER":76.4488,"MEAN_ANOMALY":283.7726,"EPHEMERIS_TYPE":0,"CLASSIFICATION_TYPE":"U","NORAD_CAT_ID":61566,"ELEMENT_SET_NO":999,"REV_AT_EPOCH":8056,"BSTAR":0.00038973,"MEAN_MOTION_DOT":5.53e-6,"MEAN_MOTION_DDOT":0},{"OBJECT_NAME":"QIANFAN-34","OBJECT_ID":"2024-185R","EPOCH":"2026-03-04T11:56:44.797344","MEAN_MOTION":14.02382069,"ECCENTRICITY":0.0008287,"INCLINATION":88.9712,"RA_OF_ASC_NODE":69.1302,"ARG_OF_PERICENTER":79.9633,"MEAN_ANOMALY":280.2481,"EPHEMERIS_TYPE":0,"CLASSIFICATION_TYPE":"U","NORAD_CAT_ID":61567,"ELEMENT_SET_NO":999,"REV_AT_EPOCH":8081,"BSTAR":0.00036458,"MEAN_MOTION_DOT":5.73e-6,"MEAN_MOTION_DDOT":0}]
